[
    {
        "CCSDS_OMM_VERS": "3.0",
        "COMMENT": "GENERATED VIA SPACE-TRACK.ORG API",
        "CREATION_DATE": "2025-05-02T17:35:09",
        "ORIGINATOR": "18 SPCS",
        "OBJECT_NAME": "GALILEO 23 (2C9)",
        "OBJECT_ID": "2018-060C",
        "CENTER_NAME": "EARTH",
        "REF_FRAME": "TEME",
        "TIME_SYSTEM": "UTC",
        "MEAN_ELEMENT_THEORY": "SGP4",
        "EPOCH": "2025-05-01T17:20:59.798976",
        "MEAN_MOTION": "1.70475488",
        "ECCENTRICITY": "0.00031400",
        "INCLINATION": "57.2784",
        "RA_OF_ASC_NODE": "352.8895",
        "ARG_OF_PERICENTER": "331.7977",
        "MEAN_ANOMALY": "28.2269",
        "EPHEMERIS_TYPE": "0",
        "CLASSIFICATION_TYPE": "U",
        "NORAD_CAT_ID": "43566",
        "ELEMENT_SET_NO": "999",
        "REV_AT_EPOCH": "4217",
        "BSTAR": "0.00000000000000",
        "MEAN_MOTION_DOT": "-0.00000098",
        "MEAN_MOTION_DDOT": "0.0000000000000",
        "SEMIMAJOR_AXIS": "29600.148",
        "PERIOD": "844.696",
        "APOAPSIS": "23231.307",
        "PERIAPSIS": "23212.718",
        "OBJECT_TYPE": "PAYLOAD",
        "RCS_SIZE": "LARGE",
        "COUNTRY_CODE": "ESA",
        "LAUNCH_DATE": "2018-07-25",
        "SITE": "FRGUI",
        "DECAY_DATE": null,
        "FILE": "4716995",
        "GP_ID": "286679644",
        "TLE_LINE0": "0 GALILEO 23 (2C9)",
        "TLE_LINE1": "1 43566U 18060C   25121.72291434 -.00000098  00000-0  00000-0 0  9990",
        "TLE_LINE2": "2 43566  57.2784 352.8895 0003140 331.7977  28.2269  1.70475488 42171"
    }
]